norad_id,name,regime,epoch,line1,line2,inclination,eccentricity,mean_motion,raan,arg_pericenter,mean_anomaly
43015,MIRATA,LEO,22321.65329498,1 43015U 17073C   22321.65329498  .00008479  00000-0  59129-3 0    18\,2 43015  97.6548 211.3109 0232593  36.9232 324.7743 14.86247840270003,97.6548,0.0232593,14.8624784,211.3109,36.9232,324.7743
43015,MIRATA,LEO,22322.25920416,1 43015U 17073C   22322.25920416  .00008525  00000-0  59447-3 0    17\,2 43015  97.6549 211.8949 0232522  34.9345 326.6881 14.86258740270090,97.6549,0.0232522,14.8625874,211.8949,34.9345,326.6881
43015,MIRATA,LEO,22323.13439833,1 43015U 17073C   22323.13439833  .00009419  00000-0  65634-3 0    11\,2 43015  97.6551 212.7387 0232379  32.0559 329.4550 14.86275278270229,97.6551,0.0232379,14.86275278,212.7387,32.0559,329.455
43015,MIRATA,LEO,22323.20172059,1 43015U 17073C   22323.20172059  .00008375  00000-0  58416-3 0    13\,2 43015  97.6550 212.8037 0232392  31.8326 329.6697 14.86274903270234,97.655,0.0232392,14.86274903,212.8037,31.8326,329.6697
43015,MIRATA,LEO,22324.14422606,1 43015U 17073C   22324.14422606  .00008616  00000-0  60101-3 0    15\,2 43015  97.6553 213.7122 0232210  28.7323 332.6457 14.86291278270370,97.6553,0.023221,14.86291278,213.7122,28.7323,332.6457
43015,MIRATA,LEO,22324.68279631,1 43015U 17073C   22324.68279631  .00008491  00000-0  59237-3 0    11\,2 43015  97.6552 214.2313 0232149  26.9562 334.3493 14.86299599270455,97.6552,0.0232149,14.86299599,214.2313,26.9562,334.3493
43015,MIRATA,LEO,22325.15404179,1 43015U 17073C   22325.15404179  .00009666  00000-0  67351-3 0  5545\,2 43015  97.6552 214.6855 0232116  25.4043 335.8371 14.86309771270525,97.6552,0.0232116,14.86309771,214.6855,25.4043,335.8371
43015,MIRATA,LEO,22325.22136238,1 43015U 17073C   22325.22136238  .00009707  00000-0  67632-3 0    16\,2 43015  97.6552 214.7504 0232110  25.1806 336.0515 14.86310947270536,97.6552,0.023211,14.86310947,214.7504,25.1806,336.0515
43015,MIRATA,LEO,22325.69260489,1 43015U 17073C   22325.69260489  .00009705  00000-0  67625-3 0    13\,2 43015  97.6552 215.2047 0232043  23.6322 337.5350 14.86319083270606,97.6552,0.0232043,14.86319083,215.2047,23.6322,337.535
43015,MIRATA,LEO,22326.16384422,1 43015U 17073C   22326.16384422  .00008654  00000-0  60363-3 0  5558\,2 43015  97.6552 215.6590 0231980  22.0840 339.0175 14.86326364270679,97.6552,0.023198,14.86326364,215.659,22.084,339.0175
43015,MIRATA,LEO,22326.29848372,1 43015U 17073C   22326.29848372  .00008462  00000-0  59040-3 0    14\,2 43015  97.6554 215.7888 0231966  21.6422 339.4405 14.86328236270699,97.6554,0.0231966,14.86328236,215.7888,21.6422,339.4405
43015,MIRATA,LEO,22326.63508118,1 43015U 17073C   22326.63508118  .00008688  00000-0  60602-3 0    19\,2 43015  97.6554 216.1133 0231921  20.5379 340.4974 14.86334634270745,97.6554,0.0231921,14.86334634,216.1133,20.5379,340.4974
43015,MIRATA,LEO,22327.17363402,1 43015U 17073C   22327.17363402  .00007676  00000-0  53613-3 0  5569\,2 43015  97.6555 216.6325 0231855  18.7711 342.1879 14.86343033270824,97.6555,0.0231855,14.86343033,216.6325,18.7711,342.1879
43015,MIRATA,LEO,22327.51022820,1 43015U 17073C   22327.51022820  .00007888  00000-0  55076-3 0    18\,2 43015  97.6553 216.9570 0231812  17.6678 343.2431 14.86348523270870,97.6553,0.0231812,14.86348523,216.957,17.6678,343.2431
43015,MIRATA,LEO,22327.64486553,1 43015U 17073C   22327.64486553  .00007861  00000-0  54890-3 0    13\,2 43015  97.6553 217.0868 0231803  17.2259 343.6657 14.86350730270892,97.6553,0.0231803,14.8635073,217.0868,17.2259,343.6657
43015,MIRATA,LEO,22328.45268483,1 43015U 17073C   22328.45268483  .00008139  00000-0  56817-3 0    13\,2 43015  97.6550 217.8656 0231711  14.5740 346.2008 14.86363981271011,97.655,0.0231711,14.86363981,217.8656,14.574,346.2008
43015,MIRATA,LEO,22328.58732069,1 43015U 17073C   22328.58732069  .00008320  00000-0  58065-3 0    12\,2 43015  97.6550 217.9954 0231695  14.1308 346.6244 14.86366483271038,97.655,0.0231695,14.86366483,217.9954,14.1308,346.6244
43015,MIRATA,LEO,22329.26049680,1 43015U 17073C   22329.26049680  .00007250  00000-0  50676-3 0    19\,2 43015  97.6547 218.6444 0231611  11.9144 348.7422 14.86375941271138,97.6547,0.0231611,14.86375941,218.6444,11.9144,348.7422
43015,MIRATA,LEO,22329.66439981,1 43015U 17073C   22329.66439981  .00009057  00000-0  63164-3 0    13\,2 43015  97.6545 219.0338 0231540  10.5815 350.0153 14.86385416271195,97.6545,0.023154,14.86385416,219.0338,10.5815,350.0153
43015,MIRATA,LEO,22330.47219957,1 43015U 17073C   22330.47219957  .00008869  00000-0  61876-3 0    11\,2 43015  97.6542 219.8128 0231413   7.9119 352.5647 14.86399371271317,97.6542,0.0231413,14.86399371,219.8128,7.9119,352.5647
43015,MIRATA,LEO,22330.67414828,1 43015U 17073C   22330.67414828  .00008776  00000-0  61233-3 0    11\,2 43015  97.6541 220.0075 0231383   7.2443 353.2021 14.86403064271342,97.6541,0.0231383,14.86403064,220.0075,7.2443,353.2021
43015,MIRATA,LEO,22331.48193727,1 43015U 17073C   22331.48193727  .00007962  00000-0  55610-3 0    11\,2 43015  97.6540 220.7865 0231279   4.5719 355.7534 14.86417145271469,97.654,0.0231279,14.86417145,220.7865,4.5719,355.7534
43015,MIRATA,LEO,22331.68388353,1 43015U 17073C   22331.68388353  .00008938  00000-0  62358-3 0    15\,2 43015  97.6539 220.9813 0231253   3.9055 356.3897 14.86422295271494,97.6539,0.0231253,14.86422295,220.9813,3.9055,356.3897
43015,MIRATA,LEO,22332.49166225,1 43015U 17073C   22332.49166225  .00009721  00000-0  67775-3 0    16\,2 43015  97.6539 221.7602 0231131   1.2402 358.9339 14.86438707271619,97.6539,0.0231131,14.86438707,221.7602,1.2402,358.9339
43015,MIRATA,LEO,22333.16480454,1 43015U 17073C   22333.16480454  .00010270  00000-0  71568-3 0    10\,2 43015  97.6540 222.4094 0231030 359.0215   1.0518 14.86453130271711,97.654,0.023103,14.8645313,222.4094,359.0215,1.0518
43015,MIRATA,LEO,22333.23211859,1 43015U 17073C   22333.23211859  .00009793  00000-0  68269-3 0    11\,2 43015  97.6540 222.4743 0231030 358.8003   1.2629 14.86453555271721,97.654,0.023103,14.86453555,222.4743,358.8003,1.2629
43015,MIRATA,LEO,22334.17450787,1 43015U 17073C   22334.17450787  .00008957  00000-0  62507-3 0    10\,2 43015  97.6541 223.3829 0230869 355.7041   4.2188 14.86470197271863,97.6541,0.0230869,14.86470197,223.3829,355.7041,4.2188
43015,MIRATA,LEO,22334.64569747,1 43015U 17073C   22334.64569747  .00009446  00000-0  65889-3 0    19\,2 43015  97.6542 223.8373 0230803 354.1507   5.7021 14.86480331271932,97.6542,0.0230803,14.86480331,223.8373,354.1507,5.7021
43015,MIRATA,LEO,22335.45344439,1 43015U 17073C   22335.45344439  .00010503  00000-0  73198-3 0    16\,2 43015  97.6542 224.6163 0230663 351.4897   8.2435 14.86498227272058,97.6542,0.0230663,14.86498227,224.6163,351.4897,8.2435
43015,MIRATA,LEO,22336.53042570,1 43015U 17073C   22336.53042570  .00009491  00000-0  66210-3 0    18\,2 43015  97.6545 225.6551 0230492 347.9353  11.6397 14.86520743272212,97.6545,0.0230492,14.86520743,225.6551,347.9353,11.6397
43015,MIRATA,LEO,22337.40546142,1 43015U 17073C   22337.40546142  .00008987  00000-0  62732-3 0    13\,2 43015  97.6546 226.4990 0230365 345.0283  14.4188 14.86537866272346,97.6546,0.0230365,14.86537866,226.499,345.0283,14.4188
43015,MIRATA,LEO,22337.67470144,1 43015U 17073C   22337.67470144  .00008515  00000-0  59470-3 0    12\,2 43015  97.6546 226.7586 0230331 344.1356  15.2726 14.86542603272380,97.6546,0.0230331,14.86542603,226.7586,344.1356,15.2726
43015,MIRATA,LEO,22338.48241559,1 43015U 17073C   22338.48241559  .00009408  00000-0  65637-3 0    12\,2 43015  97.6547 227.5374 0230249 341.4575  17.8350 14.86558959272502,97.6547,0.0230249,14.86558959,227.5374,341.4575,17.835
43015,MIRATA,LEO,22338.68434267,1 43015U 17073C   22338.68434267  .00011087  00000-0  77236-3 0    18\,2 43015  97.6547 227.7321 0230213 340.7877  18.4761 14.86565466272531,97.6547,0.0230213,14.86565466,227.7321,340.7877,18.4761
43015,MIRATA,LEO,22339.15550314,1 43015U 17073C   22339.15550314  .00012597  00000-0  87673-3 0  5651\,2 43015  97.6547 228.1864 0230127 339.2313  19.9665 14.86578003272608,97.6547,0.0230127,14.86578003,228.1864,339.2313,19.9665
43015,MIRATA,LEO,22339.49204418,1 43015U 17073C   22339.49204418  .00012226  00000-0  85117-3 0    14\,2 43015  97.6548 228.5110 0230053 338.1201  21.0310 14.86585687272651,97.6548,0.0230053,14.86585687,228.511,338.1201,21.031
43015,MIRATA,LEO,22339.62665994,1 43015U 17073C   22339.62665994  .00012259  00000-0  85346-3 0    19\,2 43015  97.6548 228.6408 0230030 337.6759  21.4567 14.86589617272676,97.6548,0.023003,14.86589617,228.6408,337.6759,21.4567
43015,MIRATA,LEO,22340.50165512,1 43015U 17073C   22340.50165512  .00012131  00000-0  84466-3 0    10\,2 43015  97.6549 229.4848 0229847 334.7940  24.2197 14.86612489272807,97.6549,0.0229847,14.86612489,229.4848,334.794,24.2197
43015,MIRATA,LEO,22340.63626865,1 43015U 17073C   22340.63626865  .00011916  00000-0  82985-3 0    11\,2 43015  97.6549 229.6146 0229824 334.3482  24.6473 14.86615976272829,97.6549,0.0229824,14.86615976,229.6146,334.3482,24.6473
43015,MIRATA,LEO,22341.44394406,1 43015U 17073C   22341.44394406  .00011360  00000-0  79152-3 0    19\,2 43015  97.6549 230.3936 0229674 331.6879  27.2008 14.86634805272946,97.6549,0.0229674,14.86634805,230.3936,331.6879,27.2008
43015,MIRATA,LEO,22342.11699737,1 43015U 17073C   22342.11699737  .00015357  00000-0  10675-2 0  5670\,2 43015  97.6547 231.0428 0229536 329.4674  29.3342 14.86658260273040,97.6547,0.0229536,14.8665826,231.0428,329.4674,29.3342
43015,MIRATA,LEO,22342.52082499,1 43015U 17073C   22342.52082499  .00014622  00000-0  10167-2 0    19\,2 43015  97.6548 231.4324 0229467 328.1303  30.6197 14.86669823273105,97.6548,0.0229467,14.86669823,231.4324,328.1303,30.6197
43015,MIRATA,LEO,22343.12656038,1 43015U 17073C   22343.12656038  .00014897  00000-0  10357-2 0    17\,2 43015  97.6546 232.0166 0229348 326.1189  32.5551 14.86688955273193,97.6546,0.0229348,14.86688955,232.0166,326.1189,32.5551
